GLOBALSTAR3_L_00003023-01
1 64274U 22775FK  26070.40780093  .00000000  00000+0  00000-0 0  9991
2 64274  55.0000 264.0000 0000000   0.0000  35.2000 14.89338871    10
GLOBALSTAR3_L_00003023-02
1 64275U 26210TQ  26070.40780093  .00000000  00000+0  00000-0 0  9990
2 64275  55.0000 264.0000 0000000   0.0000  47.2000 14.89338871    14
GLOBALSTAR3_L_00003023-03
1 64276U 25703OA  26070.40780093  .00000000  00000+0  00000-0 0  9997
2 64276  55.0000 264.0000 0000000   0.0000  59.2000 14.89338871    18
GLOBALSTAR3_L_00003023-04
1 64277U 24694TQ  26070.40780093  .00000000  00000+0  00000-0 0  9996
2 64277  55.0000 264.0000 0000000   0.0000  71.2000 14.89338871    13
GLOBALSTAR3_L_00003023-05
1 64278U 26742OG  26070.40780093  .00000000  00000+0  00000-0 0  9993
2 64278  55.0000 264.0000 0000000   0.0000  83.2000 14.89338871    17
GLOBALSTAR3_L_00003023-06
1 64279U 24589QR  26070.40780093  .00000000  00000+0  00000-0 0  9991
2 64279  55.0000 264.0000 0000000   0.0000  95.2000 14.89338871    11
GLOBALSTAR3_L_00003023-07
1 64280U 24372KM  26070.40780093  .00000000  00000+0  00000-0 0  9993
2 64280  55.0000 264.0000 0000000   0.0000 107.2000 14.89338871    17
GLOBALSTAR3_L_00003023-08
1 64281U 24878CO  26070.40780093  .00000000  00000+0  00000-0 0  9995
2 64281  55.0000 264.0000 0000000   0.0000 119.2000 14.89338871    11
GLOBALSTAR3_L_00003023-09
1 64282U 25770SZ  26070.40780093  .00000000  00000+0  00000-0 0  9998
2 64282  55.0000 264.0000 0000000   0.0000 131.2000 14.89338871    16
GLOBALSTAR3_L_00003023-10
1 64283U 22632EA  26070.40780093  .00000000  00000+0  00000-0 0  9993
2 64283  55.0000 264.0000 0000000   0.0000 143.2000 14.89338871    10
GLOBALSTAR3_L_00003023-11
1 64284U 22222ZS  26070.40780093  .00000000  00000+0  00000-0 0  9999
2 64284  55.0000 264.0000 0000000   0.0000 155.2000 14.89338871    14
GLOBALSTAR3_L_00003023-12
1 64285U 24600XP  26070.40780093  .00000000  00000+0  00000-0 0  9992
2 64285  55.0000 264.0000 0000000   0.0000 167.2000 14.89338871    18
GLOBALSTAR3_L_00003023-13
1 64286U 26663AO  26070.40780093  .00000000  00000+0  00000-0 0  9994
2 64286  55.0000 264.0000 0000000   0.0000 179.2000 14.89338871    12
GLOBALSTAR3_L_00003023-14
1 64287U 26654VJ  26070.40780093  .00000000  00000+0  00000-0 0  9995
2 64287  55.0000 264.0000 0000000   0.0000 191.2000 14.89338871    17
GLOBALSTAR3_L_00003023-15
1 64288U 23038OG  26070.40780093  .00000000  00000+0  00000-0 0  9999
2 64288  55.0000 264.0000 0000000   0.0000 203.2000 14.89338871    12
GLOBALSTAR3_L_00003023-16
1 64289U 22719PF  26070.40780093  .00000000  00000+0  00000-0 0  9995
2 64289  55.0000 264.0000 0000000   0.0000 215.2000 14.89338871    16
GLOBALSTAR3_L_00003023-17
1 64290U 22311GU  26070.40780093  .00000000  00000+0  00000-0 0  9995
2 64290  55.0000 264.0000 0000000   0.0000 227.2000 14.89338871    11
GLOBALSTAR3_L_00003023-18
1 64291U 24491YP  26070.40780093  .00000000  00000+0  00000-0 0  9997
2 64291  55.0000 264.0000 0000000   0.0000 239.2000 14.89338871    15
GLOBALSTAR3_L_00003023-19
1 64292U 23706CM  26070.40780093  .00000000  00000+0  00000-0 0  9996
2 64292  55.0000 264.0000 0000000   0.0000 251.2000 14.89338871    10
GLOBALSTAR3_L_00003023-20
1 64293U 25926UZ  26070.40780093  .00000000  00000+0  00000-0 0  9993
2 64293  55.0000 264.0000 0000000   0.0000 263.2000 14.89338871    14
GLOBALSTAR3_L_00003023-21
1 64294U 25221TT  26070.40780093  .00000000  00000+0  00000-0 0  9992
2 64294  55.0000 264.0000 0000000   0.0000 275.2000 14.89338871    18
GLOBALSTAR3_L_00003023-22
1 64295U 25973ET  26070.40780093  .00000000  00000+0  00000-0 0  9997
2 64295  55.0000 264.0000 0000000   0.0000 287.2000 14.89338871    12
GLOBALSTAR3_L_00003023-23
1 64296U 26407EI  26070.40780093  .00000000  00000+0  00000-0 0  9991
2 64296  55.0000 264.0000 0000000   0.0000 299.2000 14.89338871    16
GLOBALSTAR3_L_00003023-24
1 64297U 22147GE  26070.40780093  .00000000  00000+0  00000-0 0  9999
2 64297  55.0000 264.0000 0000000   0.0000 311.2000 14.89338871    12
GLOBALSTAR3_L_00003023-25
1 64298U 26243SJ  26070.40780093  .00000000  00000+0  00000-0 0  9991
2 64298  55.0000 264.0000 0000000   0.0000 323.2000 14.89338871    16
GLOBALSTAR3_L_00003023-26
1 64299U 25805NM  26070.40780093  .00000000  00000+0  00000-0 0  9995
2 64299  55.0000 264.0000 0000000   0.0000 335.2000 14.89338871    10
GLOBALSTAR3_L_00003023-27
1 64300U 23062VB  26070.40780093  .00000000  00000+0  00000-0 0  9991
2 64300  55.0000 264.0000 0000000   0.0000 347.2000 14.89338871    16
GLOBALSTAR3_L_00003023-28
1 64301U 22674PM  26070.40780093  .00000000  00000+0  00000-0 0  9990
2 64301  55.0000 264.0000 0000000   0.0000 359.2000 14.89338871    10
GLOBALSTAR3_L_00003023-29
1 64302U 24075SS  26070.40780093  .00000000  00000+0  00000-0 0  9998
2 64302  55.0000 264.0000 0000000   0.0000  11.2000 14.89338871    16
GLOBALSTAR3_L_00003023-30
1 64303U 26307YZ  26070.40780093  .00000000  00000+0  00000-0 0  9999
2 64303  55.0000 264.0000 0000000   0.0000  23.2000 14.89338871    10
GLOBALSTAR3_L_00003024-01
1 64304U 23152FY  26070.40780093  .00000000  00000+0  00000-0 0  9995
2 64304  55.0000 276.0000 0000000   0.0000  36.8000 14.89338871    14
GLOBALSTAR3_L_00003024-02
1 64305U 24118ZR  26070.40780093  .00000000  00000+0  00000-0 0  9999
2 64305  55.0000 276.0000 0000000   0.0000  48.8000 14.89338871    18
GLOBALSTAR3_L_00003024-03
1 64306U 25985EK  26070.40780093  .00000000  00000+0  00000-0 0  9993
2 64306  55.0000 276.0000 0000000   0.0000  60.8000 14.89338871    13
GLOBALSTAR3_L_00003024-04
1 64307U 24872ER  26070.40780093  .00000000  00000+0  00000-0 0  9998
2 64307  55.0000 276.0000 0000000   0.0000  72.8000 14.89338871    17
GLOBALSTAR3_L_00003024-05
1 64308U 24679XN  26070.40780093  .00000000  00000+0  00000-0 0  9994
2 64308  55.0000 276.0000 0000000   0.0000  84.8000 14.89338871    11
GLOBALSTAR3_L_00003024-06
1 64309U 25481KN  26070.40780093  .00000000  00000+0  00000-0 0  9997
2 64309  55.0000 276.0000 0000000   0.0000  96.8000 14.89338871    15
GLOBALSTAR3_L_00003024-07
1 64310U 23362OK  26070.40780093  .00000000  00000+0  00000-0 0  9995
2 64310  55.0000 276.0000 0000000   0.0000 108.8000 14.89338871    11
GLOBALSTAR3_L_00003024-08
1 64311U 24559IR  26070.40780093  .00000000  00000+0  00000-0 0  9995
2 64311  55.0000 276.0000 0000000   0.0000 120.8000 14.89338871    16
GLOBALSTAR3_L_00003024-09
1 64312U 24224LN  26070.40780093  .00000000  00000+0  00000-0 0  9995
2 64312  55.0000 276.0000 0000000   0.0000 132.8000 14.89338871    10
GLOBALSTAR3_L_00003024-10
1 64313U 25444CP  26070.40780093  .00000000  00000+0  00000-0 0  9991
2 64313  55.0000 276.0000 0000000   0.0000 144.8000 14.89338871    14
GLOBALSTAR3_L_00003024-11
1 64314U 23846O   26070.40780093  .00000000  00000+0  00000-0 0  9996
2 64314  55.0000 276.0000 0000000   0.0000 156.8000 14.89338871    18
GLOBALSTAR3_L_00003024-12
1 64315U 26657OP  26070.40780093  .00000000  00000+0  00000-0 0  9990
2 64315  55.0000 276.0000 0000000   0.0000 168.8000 14.89338871    12
GLOBALSTAR3_L_00003024-13
1 64316U 24300YP  26070.40780093  .00000000  00000+0  00000-0 0  9994
2 64316  55.0000 276.0000 0000000   0.0000 180.8000 14.89338871    17
GLOBALSTAR3_L_00003024-14
1 64317U 23489AT  26070.40780093  .00000000  00000+0  00000-0 0  9992
2 64317  55.0000 276.0000 0000000   0.0000 192.8000 14.89338871    11
GLOBALSTAR3_L_00003024-15
1 64318U 25997SA  26070.40780093  .00000000  00000+0  00000-0 0  9999
2 64318  55.0000 276.0000 0000000   0.0000 204.8000 14.89338871    16
GLOBALSTAR3_L_00003024-16
1 64319U 26773CC  26070.40780093  .00000000  00000+0  00000-0 0  9993
2 64319  55.0000 276.0000 0000000   0.0000 216.8000 14.89338871    10
GLOBALSTAR3_L_00003024-17
1 64320U 22804CP  26070.40780093  .00000000  00000+0  00000-0 0  9996
2 64320  55.0000 276.0000 0000000   0.0000 228.8000 14.89338871    15
GLOBALSTAR3_L_00003024-18
1 64321U 22417GN  26070.40780093  .00000000  00000+0  00000-0 0  9997
2 64321  55.0000 276.0000 0000000   0.0000 240.8000 14.89338871    10
GLOBALSTAR3_L_00003024-19
1 64322U 25674GL  26070.40780093  .00000000  00000+0  00000-0 0  9996
2 64322  55.0000 276.0000 0000000   0.0000 252.8000 14.89338871    14
GLOBALSTAR3_L_00003024-20
1 64323U 25941AP  26070.40780093  .00000000  00000+0  00000-0 0  9994
2 64323  55.0000 276.0000 0000000   0.0000 264.8000 14.89338871    18
GLOBALSTAR3_L_00003024-21
1 64324U 24045ZY  26070.40780093  .00000000  00000+0  00000-0 0  9999
2 64324  55.0000 276.0000 0000000   0.0000 276.8000 14.89338871    12
GLOBALSTAR3_L_00003024-22
1 64325U 25207SF  26070.40780093  .00000000  00000+0  00000-0 0  9991
2 64325  55.0000 276.0000 0000000   0.0000 288.8000 14.89338871    16
GLOBALSTAR3_L_00003024-23
1 64326U 26689IJ  26070.40780093  .00000000  00000+0  00000-0 0  9997
2 64326  55.0000 276.0000 0000000   0.0000 300.8000 14.89338871    12
GLOBALSTAR3_L_00003024-24
1 64327U 24774JI  26070.40780093  .00000000  00000+0  00000-0 0  9991
2 64327  55.0000 276.0000 0000000   0.0000 312.8000 14.89338871    16
GLOBALSTAR3_L_00003024-25
1 64328U 26527HQ  26070.40780093  .00000000  00000+0  00000-0 0  9990
2 64328  55.0000 276.0000 0000000   0.0000 324.8000 14.89338871    10
GLOBALSTAR3_L_00003024-26
1 64329U 25381FY  26070.40780093  .00000000  00000+0  00000-0 0  9998
2 64329  55.0000 276.0000 0000000   0.0000 336.8000 14.89338871    14
GLOBALSTAR3_L_00003024-27
1 64330U 22237ZK  26070.40780093  .00000000  00000+0  00000-0 0  9997
2 64330  55.0000 276.0000 0000000   0.0000 348.8000 14.89338871    19
GLOBALSTAR3_L_00003024-28
1 64331U 24068JX  26070.40780093  .00000000  00000+0  00000-0 0  9992
2 64331  55.0000 276.0000 0000000   0.0000   0.8000 14.89338871    15
GLOBALSTAR3_L_00003024-29
1 64332U 22077ER  26070.40780093  .00000000  00000+0  00000-0 0  9991
2 64332  55.0000 276.0000 0000000   0.0000  12.8000 14.89338871    19
GLOBALSTAR3_L_00003024-30
1 64333U 22262UP  26070.40780093  .00000000  00000+0  00000-0 0  9998
2 64333  55.0000 276.0000 0000000   0.0000  24.8000 14.89338871    13
